[{"OBJECT_NAME":"STARLINK-3075","OBJECT_ID":"2021-104B","EPOCH":"2026-03-09T15:50:59.290080","MEAN_MOTION":15.08836293,"ECCENTRICITY":0.0001306,"INCLINATION":53.2175,"RA_OF_ASC_NODE":229.2531,"ARG_OF_PERICENTER":90.8705,"MEAN_ANOMALY":269.2436,"EPHEMERIS_TYPE":0,"CLASSIFICATION_TYPE":"U","NORAD_CAT_ID":49409,"ELEMENT_SET_NO":999,"REV_AT_EPOCH":23863,"BSTAR":1.6255609e-5,"MEAN_MOTION_DOT":-2.9e-7,"MEAN_MOTION_DDOT":0},{"OBJECT_NAME":"CZ-6A DEB","OBJECT_ID":"2022-151AFR","EPOCH":"2026-03-09T05:35:50.250336","MEAN_MOTION":14.7956831,"ECCENTRICITY":0.01345943,"INCLINATION":98.6622,"RA_OF_ASC_NODE":165.7254,"ARG_OF_PERICENTER":140.0218,"MEAN_ANOMALY":221.0996,"EPHEMERIS_TYPE":0,"CLASSIFICATION_TYPE":"U","NORAD_CAT_ID":56641,"ELEMENT_SET_NO":999,"REV_AT_EPOCH":15895,"BSTAR":0.00092929705,"MEAN_MOTION_DOT":8.055e-5,"MEAN_MOTION_DDOT":0}]
